C/2019 L1 (PANSTARRS),e,9.9748,254.4281,50.0551,9.831944,0.0319702,0.70473332,55.2031,05/01.0/2024,2000,g 13.5,4.0
# From MPC115886
C/2019 L2 (NEOWISE),e,152.1945,12.5585,18.8648,25.11314,0.0078316,0.93527665,14.5300,05/01.0/2024,2000,g 16.0,4.0
# From MPEC 2024-GJ3
P/2019 LD2 (ATLAS),e,11.6042,179.4080,118.0918,5.196951,0.0831919,0.12739957,127.7302,05/01.0/2024,2000,g  8.5,4.0
# From MPEC 2024-H91
C/2019 L3 (ATLAS),h,01/09.8477/2022,48.3445,290.7473,171.6661,1.002570,3.555247,2000,4.5,4.0
# From MPEC 2020-K19
P/2019 LM4 (Palomar),e,36.4177,72.8418,68.2649,5.704291,0.0723438,0.58541272,128.6702,05/01.0/2024,2000,g  9.5,4.0
# From MPC118095
C/2019 LB7 (Kleyna),e,164.2882,3.9231,336.6757,34.86288,0.0047881,0.92842398,8.9175,05/01.0/2024,2000,g 17.0,4.0
# From MPEC 2024-DC6
P/2019 M2 (ATLAS),e,12.2663,307.6106,332.5253,3.029992,0.1868710,0.64729082,331.9368,05/01.0/2024,2000,g 21.2,4.0
# From MPC118095
C/2019 M3 (ATLAS),e,99.5725,154.9780,87.9207,4812,0.0000030,0.99949614,0.0000,12/31.3781/2018,2000,g 12.2,4.0
# From MPEC 2023-JA2
C/2019 M4 (TESS),h,09/11.4641/2019,65.6781,52.6495,260.3694,1.002260,9.190320,2000,5.0,4.0
# From MPEC 2023-C45
C/2019 N1 (ATLAS),e,82.4538,13.5567,193.3750,1146,0.0000254,0.99851294,0.0000,11/30.8811/2020,2000,g  7.5,4.0
# From MPEC 2023-CD8
A/2019 N2,e,89.3478,276.1857,347.1523,1403,0.0000188,0.99861338,0.0000,08/22.6409/2019,2000,g 12.5,2.0
# From MPEC 2022-A21
C/2019 NJ3 (Lemmon),h,10/22.7358/2020,99.3850,142.4842,246.8931,1.001916,4.363352,2000,9.0,4.0
# From MPEC 2024-H50
C/2019 O2 (PANSTARRS),e,93.3124,48.2577,129.6070,58.37539,0.0022098,0.83413660,0.8628,05/01.0/2024,2000,g  5.0,4.0
# From MPEC 2024-F34
C/2019 O3 (Palomar),h,03/09.5069/2021,89.8100,300.4509,60.1302,1.004091,8.821388,2000,3.5,4.0
# From MPEC 2021-P47
A/2019 O4,e,115.0644,354.9284,61.8670,33.26225,0.0051378,0.89038583,7.9175,05/01.0/2024,2000,g 15.5,2.0
# From MPEC 2024-EF7
C/2019 Q1 (Lemmon),h,07/21.4113/2020,155.7312,42.4567,56.2434,1.001698,5.005008,2000,8.5,4.0
# From MPC117072
A/2019 Q2,e,159.0119,188.0475,176.4591,58.41519,0.0022076,0.97836669,0.0000,07/22.6066/2019,2000,g 18.0,2.0
# From MPC117072
P/2019 S2 (PANSTARRS),e,10.4645,93.1851,217.0760,4.745246,0.0953490,0.20502769,180.8970,05/01.0/2024,2000,g 13.5,4.0
# From MPEC 2022-CN4
P/2019 S3 (PANSTARRS),e,8.6938,150.1616,213.0689,3.415150,0.1561671,0.47099138,266.7621,05/01.0/2024,2000,g 18.3,4.0
# From MPEC 2021-S45
C/2019 S4 (Lemmon),e,92.1064,63.1582,71.3726,240.7879,0.0002638,0.98570699,0.0000,04/08.5234/2020,2000,g 11.0,4.0
# From MPEC 2023-N01
A/2019 T1,e,120.8597,6.9432,91.0452,38.83863,0.0040720,0.88982869,4.8945,05/01.0/2024,2000,g 13.0,2.0
# From MPEC 2023-R20
C/2019 T2 (Lemmon),e,111.4347,155.6558,239.4220,5007,0.0000028,0.99947171,0.0000,04/22.6668/2021,2000,g  9.0,4.0
# From MPEC 2023-UR6
C/2019 T3 (ATLAS),e,121.8449,139.5333,112.4627,3377,0.0000050,0.99823728,0.0000,03/04.3155/2021,2000,g  6.8,4.0
# From MPEC 2024-H91
C/2019 T4 (ATLAS),e,53.6291,199.9328,351.1301,894.6812,0.0000368,0.99526068,0.0000,06/08.7182/2022,2000,g  5.0,4.0
# From MPEC 2021-P47
P/2019 T5 (ATLAS),e,33.4959,247.6123,189.5867,8.001674,0.0435444,0.80980305,75.4773,05/01.0/2024,2000,g 15.0,4.0
# From MPEC 2021-P47
P/2019 T6 (PANSTARRS),e,18.6993,71.2466,329.0161,5.440099,0.0776772,0.62298628,127.0004,05/01.0/2024,2000,g 15.5,4.0
# From MPC118096
P/2019 U4 (PANSTARRS),e,11.6980,200.0183,181.0465,3.519691,0.1492613,0.47596240,251.4388,05/01.0/2024,2000,g 19.0,4.0
# From MPEC 2024-H91
C/2019 U5 (PANSTARRS),h,03/29.6973/2023,113.5145,2.6316,181.4693,1.000909,3.623885,2000,4.5,4.0
# From MPEC 2022-H04
C/2019 U6 (Lemmon),e,60.9654,235.7899,329.4961,318.2636,0.0001736,0.99713820,0.0000,06/18.2685/2020,2000,g 10.0,4.0
# From MPEC 2022-N37
C/2019 V1 (Borisov),e,61.9362,83.1506,51.1714,1834,0.0000125,0.99831379,0.0000,07/16.8270/2020,2000,g 11.0,4.0
# From MPEC 2022-L66
P/2019 V2 (Groeller),e,11.8074,189.1733,335.6485,7.495740,0.0480267,0.33135297,62.0629,05/01.0/2024,2000,g 10.0,4.0
# From MPEC 2023-A50
P/2019 W1 (PANSTARRS),e,23.4742,35.3755,18.7988,4.548768,0.1015929,0.26730254,184.6400,05/01.0/2024,2000,g 12.9,4.0
# From MPEC 2021-P47
P/2019 X1 (Pruyne),e,10.2500,43.6797,36.8612,6.176116,0.0642142,0.30394754,111.9659,05/01.0/2024,2000,g 10.4,4.0
# From MPEC 2020-C98
P/2019 X2 (Pan-STARRS),e,15.8954,250.8408,213.4562,3.635776,0.1421702,0.50014656,228.0095,05/01.0/2024,2000,g 18.0,4.0
# From MPC119999
C/2019 Y1 (ATLAS),e,73.3697,31.5358,57.9087,87.33912,0.0012075,0.99052323,0.0000,03/16.5327/2020,2000,g 13.7,4.0
# From MPEC 2020-C98
P/2019 Y3 (Catalina),e,24.6001,139.3010,2.5764,3.014611,0.1883030,0.69114265,302.3443,05/01.0/2024,2000,g 18.5,4.0
# From MPEC 2024-A43
C/2019 Y4 (ATLAS),e,45.0813,120.7258,177.4411,351.7094,0.0001494,0.99927105,0.0000,05/30.4991/2020,2000,g 11.8,6.0
# From MPEC 2020-L06
C/2019 Y4-A (ATLAS),h,05/30.5352/2020,45.5208,121.0900,177.2747,1.001407,0.254539,2000,11.6,6.0
# From MPEC 2023-J29
C/2019 Y4-B (ATLAS),h,05/30.5081/2020,45.2111,120.8328,177.3854,1.000002,0.255852,2000,12.1,6.0
# From MPEC 2020-L06
C/2019 Y4-C (ATLAS),h,05/30.4875/2020,45.3037,120.8170,177.3079,1.002133,0.255613,2000,12.7,6.0
# From MPEC 2020-L06
C/2019 Y4-D (ATLAS),e,45.3520,121.1854,177.4473,68.10288,0.0017537,0.99625683,0.0000,05/30.6075/2020,2000,g 12.5,6.0
# From MPEC 2023-A50
C/2019 Y5 (PANSTARRS),e,82.7610,51.7500,303.6084,717.1755,0.0000513,0.99313164,0.0000,08/17.4132/2019,2000,g 11.0,4.0
# From MPEC 2023-A50
A/2020 A1,e,149.0334,119.1387,302.4335,25.53164,0.0076399,0.93470283,12.3192,05/01.0/2024,2000,g 18.0,2.0
# From MPEC 2022-YN2
C/2020 A2 (Iwamoto),e,120.5623,286.2419,68.0373,1172,0.0000246,0.99916917,0.0000,01/08.1576/2020,2000,g 13.5,4.0
# From MPEC 2023-A50
C/2020 A3 (ATLAS),h,06/28.3852/2019,146.6447,120.8042,268.3030,1.000087,5.755559,2000,8.0,4.0
# From MPEC 2022-P91
P/2020 A4 (PANSTARRS-Lemmon),e,24.9938,312.3392,144.8036,8.196742,0.0419993,0.65434920,68.0533,05/01.0/2024,2000,g 15.0,4.0
# From MPEC 2020-N08
A/2020 B1,e,18.5261,309.8947,154.7621,51.66230,0.0026543,0.96634604,4.2125,05/01.0/2024,2000,g 21.0,2.0
# From MPEC 2020-HN5
C/2020 B2 (Lemmon),e,55.7523,354.2625,143.5939,67.66675,0.0017707,0.95923895,2.7555,05/01.0/2024,2000,g 10.0,4.0
# From MPEC 2022-N37
C/2020 B3 (Rankin),e,20.7081,185.8190,324.8827,949.6924,0.0000337,0.99649221,0.0000,10/19.8483/2019,2000,g 13.0,4.0
# From MPEC 2023-KD6
P/2020 B4 (Sheppard),e,11.6071,185.9729,341.9885,7.968316,0.0438182,0.19221280,39.2092,05/01.0/2024,2000,g 10.5,4.0
# From MPEC 2024-H91
C/2020 F2 (ATLAS),h,07/13.8345/2022,163.5895,250.3024,48.2880,1.004516,8.815067,2000,4.5,4.0
# From MPEC 2021-O56
C/2020 F3 (NEOWISE),e,129.1503,61.0955,37.3904,380.5487,0.0001328,0.99922506,0.0000,07/04.2034/2020,2000,g  7.5,5.2
# From MPEC 2024-BE0
C/2020 F5 (MASTER),e,52.2106,350.5059,310.6738,169.8469,0.0004453,0.97452681,0.0000,03/16.9473/2021,2000,g  6.5,3.2
# From MPEC 2020-L06
C/2020 F6 (PANSTARRS),e,174.5832,207.8899,344.4540,374.8707,0.0001358,0.99066106,0.0000,04/11.3738/2020,2000,g 14.5,2.8
# From MPEC 2024-A43
C/2020 F7 (Lemmon),e,93.9598,321.8493,227.9511,554.6613,0.0000755,0.99038558,0.0000,11/13.6218/2021,2000,g  7.0,4.0
# From MPEC 2023-J29
C/2020 F8 (SWAN),h,05/26.7807/2020,110.5740,259.8233,68.0742,1.000132,0.430290,2000,10.0,4.0
# From MPEC 2020-L06
P/2020 G1 (Pimentel),e,18.5117,240.1111,207.6177,3.607665,0.1438351,0.86067738,216.4324,05/01.0/2024,2000,g 17.0,4.0
# From MPEC 2022-YB4
C/2020 H2 (Pruyne),e,124.8331,277.6707,26.6259,184.6021,0.0003930,0.99550602,0.0000,04/27.6624/2020,2000,g 14.0,3.2
# From MPEC 2020-HM1
C/2020 H3 (Wierzchos),p,06/05.7162/2020,62.5292,30.4456,2.300288,270.6227,2000,13.5,4.0
# From MPEC 2020-L06
C/2020 H4 (Leonard),e,84.4966,307.5761,117.5219,47.81560,0.0029809,0.98065913,0.0000,08/29.5762/2020,2000,g 15.0,3.2
# From MPEC 2024-F34
C/2020 H5 (Robinson),e,70.2523,210.6264,326.2946,4572,0.0000032,0.99795747,0.0000,12/10.1672/2020,2000,g  5.0,4.0
# From MPEC 2024-AF0
C/2020 H6 (ATLAS),e,79.9784,213.7173,20.2513,3200,0.0000054,0.99853133,0.0000,09/30.1846/2021,2000,g  8.0,3.2
# From MPEC 2020-KB7
C/2020 H7 (Lemmon),e,135.9235,323.5194,82.6780,1405,0.0000187,0.99685380,0.0000,06/02.9510/2020,2000,g 11.0,4.0
# From MPEC 2021-N06
C/2020 H8 (PANSTARRS),e,99.7046,68.4417,128.8975,599.5317,0.0000671,0.99220897,0.0000,06/04.5904/2020,2000,g 10.5,4.0
# From MPEC 2022-ED3
A/2020 H9,e,137.8784,213.1760,312.7526,361.1239,0.0001436,0.99288827,0.0000,12/21.8923/2019,2000,g 18.0,2.0
# From MPEC 2023-HN7
C/2020 H11 (PANSTARRS-Lemmon),h,09/14.1614/2020,151.3881,303.0485,91.4229,1.001390,7.623808,2000,8.5,4.0
# From MPEC 2023-KD6
C/2020 J1 (SONEAR),h,04/18.5075/2021,142.3059,226.6099,341.6817,1.000402,3.349562,2000,8.5,3.2
# From MPEC 2024-H50
C/2020 K1 (PANSTARRS),e,89.6730,94.3628,213.9815,7460,0.0000015,0.99958801,0.0000,05/09.0473/2023,2000,g  5.5,4.0
# From MPEC 2021-N06
C/2020 K2 (PANSTARRS),h,08/05.8519/2020,91.0050,288.4154,67.3426,1.002601,8.880569,2000,10.8,4.0
# From MPEC 2020-KF9
C/2020 K3 (Leonard),p,06/01.0032/2020,129.0152,64.4924,1.583069,28.3546,2000,14.5,4.0
# From MPEC 2020-L06
C/2020 K4 (PANSTARRS),e,125.5853,264.2519,308.8550,23.96728,0.0083999,0.92696582,12.7562,05/01.0/2024,2000,g 16.5,4.0
# From MPEC 2021-R75
C/2020 K5 (PANSTARRS),h,06/05.1029/2021,67.0837,86.1496,249.6285,1.001148,1.538294,2000,11.0,4.0
# From MPEC 2023-N01
C/2020 K6 (Rankin),h,09/15.6027/2021,103.6427,291.5790,44.3256,1.003297,5.868182,2000,8.0,4.0
# From MPEC 2023-A50
C/2020 K7 (PANSTARRS),e,32.0442,286.1080,358.1967,96.67958,0.0010368,0.93386576,1.7087,05/01.0/2024,2000,g  8.0,4.0
# From MPEC 2021-P47
C/2020 K8 (Catalina-ATLAS),h,09/15.2372/2020,31.4356,181.4751,259.9916,1.000243,0.471069,2000,15.0,3.2
# From MPEC 2021-BE3
P/2020 K9 (Lemmon-PANSTARRS),e,23.2022,166.3135,197.0725,4.205105,0.1142980,0.32081782,134.1549,05/01.0/2024,2000,g 12.5,4.0
# From MPEC 2023-C45
P/2020 M1 (PANSTARRS),e,8.5334,142.6022,72.6031,5.315356,0.0804277,0.47305629,127.8860,05/01.0/2024,2000,g 14.5,4.0
# From MPEC 2022-H30
